CCSDS_OMM_VERS = 2.0
CREATION_DATE  = 
ORIGINATOR     = 

OBJECT_NAME    = STARLINK-36560
OBJECT_ID      = 2026-016AA
CENTER_NAME    = EARTH
REF_FRAME      = TEME
TIME_SYSTEM    = UTC
MEAN_ELEMENT_THEORY = SGP/SGP4

EPOCH          = 2026-02-21T10:59:49.256736
MEAN_MOTION    = 15.79167678
ECCENTRICITY   = .00015442
INCLINATION    = 97.2842
RA_OF_ASC_NODE = 112.2266
ARG_OF_PERICENTER = 33.8187
MEAN_ANOMALY   = 326.3178

EPHEMERIS_TYPE = 0
CLASSIFICATION_TYPE = U
NORAD_CAT_ID   = 67585
ELEMENT_SET_NO = 999
REV_AT_EPOCH   = 425
BSTAR          = -.52874179E-2
MEAN_MOTION_DOT = -.852717E-2
MEAN_MOTION_DDOT = 0

CCSDS_OMM_VERS = 2.0
CREATION_DATE  = 
ORIGINATOR     = 

OBJECT_NAME    = NAVSTAR 85 (USA 581)
OBJECT_ID      = 2026-017A
CENTER_NAME    = EARTH
REF_FRAME      = TEME
TIME_SYSTEM    = UTC
MEAN_ELEMENT_THEORY = SGP/SGP4

EPOCH          = 2026-02-21T12:40:21.785952
MEAN_MOTION    = 2.00561062
ECCENTRICITY   = .0001074
INCLINATION    = 55.0109
RA_OF_ASC_NODE = 93.3959
ARG_OF_PERICENTER = 35.0050
MEAN_ANOMALY   = 325.0753

EPHEMERIS_TYPE = 0
CLASSIFICATION_TYPE = U
NORAD_CAT_ID   = 67588
ELEMENT_SET_NO = 999
REV_AT_EPOCH   = 42929
BSTAR          = 0
MEAN_MOTION_DOT = .12E-6
MEAN_MOTION_DDOT = 0

CCSDS_OMM_VERS = 2.0
CREATION_DATE  = 
ORIGINATOR     = 

OBJECT_NAME    = STARLINK-36641
OBJECT_ID      = 2026-018A
CENTER_NAME    = EARTH
REF_FRAME      = TEME
TIME_SYSTEM    = UTC
MEAN_ELEMENT_THEORY = SGP/SGP4

EPOCH          = 2026-02-21T17:43:40.681056
MEAN_MOTION    = 15.75123007
ECCENTRICITY   = .0001526
INCLINATION    = 97.2842
RA_OF_ASC_NODE = 117.7112
ARG_OF_PERICENTER = 96.5846
MEAN_ANOMALY   = 263.5593

EPHEMERIS_TYPE = 0
CLASSIFICATION_TYPE = U
NORAD_CAT_ID   = 67589
ELEMENT_SET_NO = 999
REV_AT_EPOCH   = 479
BSTAR          = .11028E-2
MEAN_MOTION_DOT = .16713E-2
MEAN_MOTION_DDOT = 0

CCSDS_OMM_VERS = 2.0
CREATION_DATE  = 
ORIGINATOR     = 

OBJECT_NAME    = STARLINK-36376
OBJECT_ID      = 2026-018B
CENTER_NAME    = EARTH
REF_FRAME      = TEME
TIME_SYSTEM    = UTC
MEAN_ELEMENT_THEORY = SGP/SGP4

EPOCH          = 2026-02-21T20:00:01.999008
MEAN_MOTION    = 15.75167310
ECCENTRICITY   = .0001541
INCLINATION    = 97.2856
RA_OF_ASC_NODE = 117.8551
ARG_OF_PERICENTER = 102.0556
MEAN_ANOMALY   = 176.7468

EPHEMERIS_TYPE = 0
CLASSIFICATION_TYPE = U
NORAD_CAT_ID   = 67590
ELEMENT_SET_NO = 999
REV_AT_EPOCH   = 484
BSTAR          = -.11058E-3
MEAN_MOTION_DOT = -.16575E-3
MEAN_MOTION_DDOT = 0

CCSDS_OMM_VERS = 2.0
CREATION_DATE  = 
ORIGINATOR     = 

OBJECT_NAME    = STARLINK-36391
OBJECT_ID      = 2026-018C
CENTER_NAME    = EARTH
REF_FRAME      = TEME
TIME_SYSTEM    = UTC
MEAN_ELEMENT_THEORY = SGP/SGP4

EPOCH          = 2026-02-21T16:56:15.268128
MEAN_MOTION    = 15.80792666
ECCENTRICITY   = .0001421
INCLINATION    = 97.2829
RA_OF_ASC_NODE = 117.7555
ARG_OF_PERICENTER = 154.4441
MEAN_ANOMALY   = 205.6897

EPHEMERIS_TYPE = 0
CLASSIFICATION_TYPE = U
NORAD_CAT_ID   = 67591
ELEMENT_SET_NO = 999
REV_AT_EPOCH   = 479
BSTAR          = .12258E-2
MEAN_MOTION_DOT = .241008E-2
MEAN_MOTION_DDOT = 0

CCSDS_OMM_VERS = 2.0
CREATION_DATE  = 
ORIGINATOR     = 

OBJECT_NAME    = STARLINK-36603
OBJECT_ID      = 2026-018D
CENTER_NAME    = EARTH
REF_FRAME      = TEME
TIME_SYSTEM    = UTC
MEAN_ELEMENT_THEORY = SGP/SGP4

EPOCH          = 2026-02-21T20:00:01.999008
MEAN_MOTION    = 15.75167935
ECCENTRICITY   = .0001449
INCLINATION    = 97.2853
RA_OF_ASC_NODE = 117.8651
ARG_OF_PERICENTER = 89.1395
MEAN_ANOMALY   = 213.6536

EPHEMERIS_TYPE = 0
CLASSIFICATION_TYPE = U
NORAD_CAT_ID   = 67592
ELEMENT_SET_NO = 999
REV_AT_EPOCH   = 480
BSTAR          = -.29276E-4
MEAN_MOTION_DOT = -.449E-4
MEAN_MOTION_DDOT = 0

CCSDS_OMM_VERS = 2.0
CREATION_DATE  = 
ORIGINATOR     = 

OBJECT_NAME    = STARLINK-36634
OBJECT_ID      = 2026-018E
CENTER_NAME    = EARTH
REF_FRAME      = TEME
TIME_SYSTEM    = UTC
MEAN_ELEMENT_THEORY = SGP/SGP4

EPOCH          = 2026-02-21T20:00:01.999008
MEAN_MOTION    = 15.75177774
ECCENTRICITY   = .0001482
INCLINATION    = 97.2846
RA_OF_ASC_NODE = 117.8844
ARG_OF_PERICENTER = 87.0478
MEAN_ANOMALY   = 259.8031

EPHEMERIS_TYPE = 0
CLASSIFICATION_TYPE = U
NORAD_CAT_ID   = 67593
ELEMENT_SET_NO = 999
REV_AT_EPOCH   = 479
BSTAR          = -.57257E-3
MEAN_MOTION_DOT = -.84649E-3
MEAN_MOTION_DDOT = 0

CCSDS_OMM_VERS = 2.0
CREATION_DATE  = 
ORIGINATOR     = 

OBJECT_NAME    = STARLINK-36638
OBJECT_ID      = 2026-018F
CENTER_NAME    = EARTH
REF_FRAME      = TEME
TIME_SYSTEM    = UTC
MEAN_ELEMENT_THEORY = SGP/SGP4

EPOCH          = 2026-02-21T16:51:55.603296
MEAN_MOTION    = 15.80814994
ECCENTRICITY   = .0000632
INCLINATION    = 97.2825
RA_OF_ASC_NODE = 117.7602
ARG_OF_PERICENTER = 231.3237
MEAN_ANOMALY   = 128.7975

EPHEMERIS_TYPE = 0
CLASSIFICATION_TYPE = U
NORAD_CAT_ID   = 67594
ELEMENT_SET_NO = 999
REV_AT_EPOCH   = 479
BSTAR          = .16782E-2
MEAN_MOTION_DOT = .333922E-2
MEAN_MOTION_DDOT = 0

CCSDS_OMM_VERS = 2.0
CREATION_DATE  = 
ORIGINATOR     = 

OBJECT_NAME    = STARLINK-36628
OBJECT_ID      = 2026-018G
CENTER_NAME    = EARTH
REF_FRAME      = TEME
TIME_SYSTEM    = UTC
MEAN_ELEMENT_THEORY = SGP/SGP4

EPOCH          = 2026-02-21T17:25:52.142880
MEAN_MOTION    = 15.75188863
ECCENTRICITY   = .0001294
INCLINATION    = 97.2844
RA_OF_ASC_NODE = 117.7272
ARG_OF_PERICENTER = 139.2462
MEAN_ANOMALY   = 220.8900

EPHEMERIS_TYPE = 0
CLASSIFICATION_TYPE = U
NORAD_CAT_ID   = 67595
ELEMENT_SET_NO = 999
REV_AT_EPOCH   = 479
BSTAR          = .14411E-2
MEAN_MOTION_DOT = .220448E-2
MEAN_MOTION_DDOT = 0

CCSDS_OMM_VERS = 2.0
CREATION_DATE  = 
ORIGINATOR     = 

OBJECT_NAME    = STARLINK-36629
OBJECT_ID      = 2026-018H
CENTER_NAME    = EARTH
REF_FRAME      = TEME
TIME_SYSTEM    = UTC
MEAN_ELEMENT_THEORY = SGP/SGP4

EPOCH          = 2026-02-21T17:37:03.081216
MEAN_MOTION    = 15.75212548
ECCENTRICITY   = .000153
INCLINATION    = 97.2839
RA_OF_ASC_NODE = 117.7164
ARG_OF_PERICENTER = 53.2421
MEAN_ANOMALY   = 306.8984

EPHEMERIS_TYPE = 0
CLASSIFICATION_TYPE = U
NORAD_CAT_ID   = 67596
ELEMENT_SET_NO = 999
REV_AT_EPOCH   = 479
BSTAR          = .11852E-2
MEAN_MOTION_DOT = .180612E-2
MEAN_MOTION_DDOT = 0

CCSDS_OMM_VERS = 2.0
CREATION_DATE  = 
ORIGINATOR     = 

OBJECT_NAME    = STARLINK-36384
OBJECT_ID      = 2026-018J
CENTER_NAME    = EARTH
REF_FRAME      = TEME
TIME_SYSTEM    = UTC
MEAN_ELEMENT_THEORY = SGP/SGP4

EPOCH          = 2026-02-21T16:47:40.769088
MEAN_MOTION    = 15.80781448
ECCENTRICITY   = .0000869
INCLINATION    = 97.2831
RA_OF_ASC_NODE = 117.7637
ARG_OF_PERICENTER = 165.2892
MEAN_ANOMALY   = 194.8401

EPHEMERIS_TYPE = 0
CLASSIFICATION_TYPE = U
NORAD_CAT_ID   = 67597
ELEMENT_SET_NO = 999
REV_AT_EPOCH   = 479
BSTAR          = .17079E-2
MEAN_MOTION_DOT = .339537E-2
MEAN_MOTION_DDOT = 0

CCSDS_OMM_VERS = 2.0
CREATION_DATE  = 
ORIGINATOR     = 

OBJECT_NAME    = STARLINK-36358
OBJECT_ID      = 2026-018K
CENTER_NAME    = EARTH
REF_FRAME      = TEME
TIME_SYSTEM    = UTC
MEAN_ELEMENT_THEORY = SGP/SGP4

EPOCH          = 2026-02-21T18:59:53.783808
MEAN_MOTION    = 15.75214595
ECCENTRICITY   = .0001831
INCLINATION    = 97.2843
RA_OF_ASC_NODE = 117.7915
ARG_OF_PERICENTER = 90.4917
MEAN_ANOMALY   = 269.6558

EPHEMERIS_TYPE = 0
CLASSIFICATION_TYPE = U
NORAD_CAT_ID   = 67598
ELEMENT_SET_NO = 999
REV_AT_EPOCH   = 480
BSTAR          = .16817E-2
MEAN_MOTION_DOT = .258732E-2
MEAN_MOTION_DDOT = 0

