STARLINK-36560          
1 67585U 26016AA  26052.45820899 -.00852717  00000+0 -52874-2 0  9995
2 67585  97.2842 112.2266 0001544  33.8187 326.3178 15.79167678  4257
NAVSTAR 85 (USA 581)    
1 67588U 26017A   26052.52802993  .00000012  00000+0  00000+0 0  9994
2 67588  55.0109  93.3959 0001074  35.0050 325.0753  2.00561062429292
STARLINK-36641          
1 67589U 26018A   26052.73866529  .00167130  00000+0  11028-2 0  9994
2 67589  97.2842 117.7112 0001526  96.5846 263.5593 15.75123007  4795
STARLINK-36376          
1 67590U 26018B   26052.83335647 -.00016575  00000+0 -11058-3 0  9991
2 67590  97.2856 117.8551 0001541 102.0556 176.7468 15.75167310  4845
STARLINK-36391          
1 67591U 26018C   26052.70573227  .00241008  00000+0  12258-2 0  9997
2 67591  97.2829 117.7555 0001421 154.4441 205.6897 15.80792666  4796
STARLINK-36603          
1 67592U 26018D   26052.83335647 -.00004490  00000+0 -29276-4 0  9998
2 67592  97.2853 117.8651 0001449  89.1395 213.6536 15.75167935  4804
STARLINK-36634          
1 67593U 26018E   26052.83335647 -.00084649  00000+0 -57257-3 0  9992
2 67593  97.2846 117.8844 0001482  87.0478 259.8031 15.75177774  4799
STARLINK-36638          
1 67594U 26018F   26052.70272689  .00333922  00000+0  16782-2 0  9991
2 67594  97.2825 117.7602 0000632 231.3237 128.7975 15.80814994  4790
STARLINK-36628          
1 67595U 26018G   26052.72629795  .00220448  00000+0  14411-2 0  9993
2 67595  97.2844 117.7272 0001294 139.2462 220.8900 15.75188863  4791
STARLINK-36629          
1 67596U 26018H   26052.73406344  .00180612  00000+0  11852-2 0  9992
2 67596  97.2839 117.7164 0001530  53.2421 306.8984 15.75212548  4794
STARLINK-36384          
1 67597U 26018J   26052.69977742  .00339537  00000+0  17079-2 0  9992
2 67597  97.2831 117.7637 0000869 165.2892 194.8401 15.80781448  4797
STARLINK-36358          
1 67598U 26018K   26052.79159472  .00258732  00000+0  16817-2 0  9992
2 67598  97.2843 117.7915 0001831  90.4917 269.6558 15.75214595  4801
